start=new Date('2022-12-17T00:00:00.000Z').valueOf();
sats=[{"MEAN_MOTION":"15.08843012","COUNTRY_CODE":"US","RCS_SIZE":"LARGE","TIME_SYSTEM":"UTC","SITE":"AFETR","NORAD_CAT_ID":"50849","MEAN_ANOMALY":"337.2242","EPOCH":"2022-12-16T15:52:44.692032","TLE_LINE1":"1 50849U 22001AY  22350.66162838  .00000544  00000-0  52291-4 0  9999","ECCENTRICITY":"0.00026590","BSTAR":"0.00005229100000","DECAY_DATE":null,"PERIOD":"95.437","INCLINATION":"53.2170","APOAPSIS":"541.576","LAUNCH_DATE":"2022-01-06","MEAN_ELEMENT_THEORY":"SGP4","RA_OF_ASC_NODE":"72.0001","ELEMENT_SET_NO":"999","MEAN_MOTION_DDOT":"0.0000000000000","CLASSIFICATION_TYPE":"U","TLE_LINE2":"2 50849  53.2170  72.0001 0002659  22.8868 337.2242 15.08843012 52273","GP_ID":"220663525","OBJECT_ID":"2022-001AY","CENTER_NAME":"EARTH","REV_AT_EPOCH":"5227","OBJECT_NAME":"STARLINK-3311","ARG_OF_PERICENTER":"22.8868","PERIAPSIS":"537.897","REF_FRAME":"TEME","FILE":"3705029","MEAN_MOTION_DOT":"0.00000544","OBJECT_TYPE":"PAYLOAD","SEMIMAJOR_AXIS":"6917.871","EPHEMERIS_TYPE":"0"},{"TLE_LINE1":"1 50850U 22001AZ  22350.59907423 -.00000575  00000-0 -18029-4 0  9997","BSTAR":"-0.00001802900000","ECCENTRICITY":"0.00025920","DECAY_DATE":null,"PERIOD":"95.438","INCLINATION":"53.2191","APOAPSIS":"541.541","MEAN_ELEMENT_THEORY":"SGP4","LAUNCH_DATE":"2022-01-06","MEAN_MOTION":"15.08839204","COUNTRY_CODE":"US","NORAD_CAT_ID":"50850","SITE":"AFETR","MEAN_ANOMALY":"328.0649","TIME_SYSTEM":"UTC","RCS_SIZE":"LARGE","EPOCH":"2022-12-16T14:22:40.013472","PERIAPSIS":"537.955","REF_FRAME":"TEME","FILE":"3705029","SEMIMAJOR_AXIS":"6917.883","OBJECT_TYPE":"PAYLOAD","MEAN_MOTION_DOT":"-0.00000575","EPHEMERIS_TYPE":"0","RA_OF_ASC_NODE":"32.2706","CLASSIFICATION_TYPE":"U","MEAN_MOTION_DDOT":"0.0000000000000","ELEMENT_SET_NO":"999","OBJECT_ID":"2022-001AZ","GP_ID":"220663270","TLE_LINE2":"2 50850  53.2191  32.2706 0002592  32.0501 328.0649 15.08839204 53369","REV_AT_EPOCH":"5336","CENTER_NAME":"EARTH","ARG_OF_PERICENTER":"32.0501","OBJECT_NAME":"STARLINK-3312"},{"OBJECT_NAME":"STARLINK-3314","ARG_OF_PERICENTER":"33.8676","OBJECT_ID":"2022-001BA","GP_ID":"220664523","TLE_LINE2":"2 50851  53.2186  72.0647 0002290  33.8676 326.2462 15.08835994 52271","REV_AT_EPOCH":"5227","CENTER_NAME":"EARTH","CLASSIFICATION_TYPE":"U","ELEMENT_SET_NO":"999","MEAN_MOTION_DDOT":"0.0000000000000","RA_OF_ASC_NODE":"72.0647","EPHEMERIS_TYPE":"0","SEMIMAJOR_AXIS":"6917.893","OBJECT_TYPE":"PAYLOAD","MEAN_MOTION_DOT":"-0.00000826","REF_FRAME":"TEME","FILE":"3705029","PERIAPSIS":"538.173","MEAN_ANOMALY":"326.2462","SITE":"AFETR","NORAD_CAT_ID":"50851","TIME_SYSTEM":"UTC","RCS_SIZE":"LARGE","EPOCH":"2022-12-16T15:31:33.572640","COUNTRY_CODE":"US","MEAN_MOTION":"15.08835994","APOAPSIS":"541.342","LAUNCH_DATE":"2022-01-06","MEAN_ELEMENT_THEORY":"SGP4","INCLINATION":"53.2186","DECAY_DATE":null,"PERIOD":"95.438","TLE_LINE1":"1 50851U 22001BA  22350.64691635 -.00000826  00000-0 -33811-4 0  9994","BSTAR":"-0.00003381100000","ECCENTRICITY":"0.00022900"},{"CLASSIFICATION_TYPE":"U","MEAN_MOTION_DDOT":"0.0000000000000","ELEMENT_SET_NO":"999","RA_OF_ASC_NODE":"181.3741","OBJECT_NAME":"STARLINK-3366","ARG_OF_PERICENTER":"37.1266","OBJECT_ID":"2022-005A","GP_ID":"220664541","TLE_LINE2":"2 51104  53.2172 181.3741 0002678  37.1266 322.9911 15.08837953 50906","REV_AT_EPOCH":"5090","CENTER_NAME":"EARTH","REF_FRAME":"TEME","FILE":"3705029","PERIAPSIS":"537.899","EPHEMERIS_TYPE":"0","SEMIMAJOR_AXIS":"6917.887","MEAN_MOTION_DOT":"0.00000626","OBJECT_TYPE":"PAYLOAD","COUNTRY_CODE":"US","MEAN_MOTION":"15.08837953","NORAD_CAT_ID":"51104","SITE":"AFETR","MEAN_ANOMALY":"322.9911","TIME_SYSTEM":"UTC","RCS_SIZE":"LARGE","EPOCH":"2022-12-16T19:10:09.668064","DECAY_DATE":null,"PERIOD":"95.438","TLE_LINE1":"1 51104U 22005A   22350.79872301  .00000626  00000-0  57457-4 0  9995","BSTAR":"0.00005745700000","ECCENTRICITY":"0.00026780","APOAPSIS":"541.604","LAUNCH_DATE":"2022-01-19","MEAN_ELEMENT_THEORY":"SGP4","INCLINATION":"53.2172"},{"REV_AT_EPOCH":"5091","CENTER_NAME":"EARTH","GP_ID":"220664276","OBJECT_ID":"2022-005B","TLE_LINE2":"2 51105  53.2156 181.2008 0002515  36.6311 323.4852 15.08844500 50916","OBJECT_NAME":"STARLINK-3350","ARG_OF_PERICENTER":"36.6311","RA_OF_ASC_NODE":"181.2008","CLASSIFICATION_TYPE":"U","ELEMENT_SET_NO":"999","MEAN_MOTION_DDOT":"0.0000000000000","SEMIMAJOR_AXIS":"6917.867","MEAN_MOTION_DOT":"0.00005197","OBJECT_TYPE":"PAYLOAD","EPHEMERIS_TYPE":"0","PERIAPSIS":"537.992","FILE":"3705029","REF_FRAME":"TEME","EPOCH":"2022-12-16T20:08:27.706848","SITE":"AFETR","MEAN_ANOMALY":"323.4852","NORAD_CAT_ID":"51105","TIME_SYSTEM":"UTC","RCS_SIZE":"LARGE","MEAN_MOTION":"15.08844500","COUNTRY_CODE":"US","INCLINATION":"53.2156","MEAN_ELEMENT_THEORY":"SGP4","LAUNCH_DATE":"2022-01-19","APOAPSIS":"541.471","BSTAR":"0.00034436000000","ECCENTRICITY":"0.00025150","TLE_LINE1":"1 51105U 22005B   22350.83920957  .00005197  00000-0  34436-3 0  9991","PERIOD":"95.437","DECAY_DATE":null},{"ARG_OF_PERICENTER":"49.2582","OBJECT_NAME":"STARLINK-3176","TLE_LINE2":"2 51106  53.2163 180.9774 0003643  49.2582 310.8726 15.08848694 52026","OBJECT_ID":"2022-005C","GP_ID":"220637698","CENTER_NAME":"EARTH","REV_AT_EPOCH":"5202","MEAN_MOTION_DDOT":"0.0000000000000","ELEMENT_SET_NO":"999","CLASSIFICATION_TYPE":"U","RA_OF_ASC_NODE":"180.9774","EPHEMERIS_TYPE":"0","MEAN_MOTION_DOT":"0.00000506","OBJECT_TYPE":"PAYLOAD","SEMIMAJOR_AXIS":"6917.854","REF_FRAME":"TEME","FILE":"3704913","PERIAPSIS":"537.199","RCS_SIZE":"LARGE","SITE":"AFETR","NORAD_CAT_ID":"51106","MEAN_ANOMALY":"310.8726","TIME_SYSTEM":"UTC","EPOCH":"2022-12-16T21:12:01.999008","COUNTRY_CODE":"US","MEAN_MOTION":"15.08848694","APOAPSIS":"542.239","MEAN_ELEMENT_THEORY":"SGP4","LAUNCH_DATE":"2022-01-19","INCLINATION":"53.2163","DECAY_DATE":null,"PERIOD":"95.437","TLE_LINE1":"1 51106U 22005C   22350.88335647  .00000506  00000-0  49927-4 0  9994","ECCENTRICITY":"0.00036430","BSTAR":"0.00004992700000"},{"RA_OF_ASC_NODE":"191.5906","MEAN_MOTION_DDOT":"0.0000000000000","ELEMENT_SET_NO":"999","CLASSIFICATION_TYPE":"U","TLE_LINE2":"2 51107  53.2130 191.5906 0002945  30.3427 329.7735 15.08830819 50767","OBJECT_ID":"2022-005D","GP_ID":"220663789","CENTER_NAME":"EARTH","REV_AT_EPOCH":"5076","ARG_OF_PERICENTER":"30.3427","OBJECT_NAME":"STARLINK-3368","PERIAPSIS":"537.736","REF_FRAME":"TEME","FILE":"3705029","OBJECT_TYPE":"PAYLOAD","MEAN_MOTION_DOT":"-0.00000805","SEMIMAJOR_AXIS":"6917.908","EPHEMERIS_TYPE":"0","MEAN_MOTION":"15.08830819","COUNTRY_CODE":"US","RCS_SIZE":"LARGE","NORAD_CAT_ID":"51107","SITE":"AFETR","MEAN_ANOMALY":"329.7735","TIME_SYSTEM":"UTC","EPOCH":"2022-12-16T18:01:20.045280","TLE_LINE1":"1 51107U 22005D   22350.75092645 -.00000805  00000-0 -32432-4 0  9996","ECCENTRICITY":"0.00029450","BSTAR":"-0.00003243200000","DECAY_DATE":null,"PERIOD":"95.438","INCLINATION":"53.2130","APOAPSIS":"541.811","LAUNCH_DATE":"2022-01-19","MEAN_ELEMENT_THEORY":"SGP4"},{"EPHEMERIS_TYPE":"0","SEMIMAJOR_AXIS":"6917.895","OBJECT_TYPE":"PAYLOAD","MEAN_MOTION_DOT":"-0.00000875","FILE":"3705029","REF_FRAME":"TEME","PERIAPSIS":"537.674","OBJECT_NAME":"STARLINK-3362","ARG_OF_PERICENTER":"40.3563","REV_AT_EPOCH":"5091","CENTER_NAME":"EARTH","OBJECT_ID":"2022-005E","GP_ID":"220664042","TLE_LINE2":"2 51108  53.2144 181.2076 0003016  40.3563 319.7653 15.08835239 50915","CLASSIFICATION_TYPE":"U","ELEMENT_SET_NO":"999","MEAN_MOTION_DDOT":"0.0000000000000","RA_OF_ASC_NODE":"181.2076","LAUNCH_DATE":"2022-01-19","MEAN_ELEMENT_THEORY":"SGP4","APOAPSIS":"541.846","INCLINATION":"53.2144","PERIOD":"95.438","DECAY_DATE":null,"BSTAR":"-0.00003682100000","ECCENTRICITY":"0.00030160","TLE_LINE1":"1 51108U 22005E   22350.83552429 -.00000875  00000-0 -36821-4 0  9990","EPOCH":"2022-12-16T20:03:09.298656","SITE":"AFETR","MEAN_ANOMALY":"319.7653","NORAD_CAT_ID":"51108","TIME_SYSTEM":"UTC","RCS_SIZE":"LARGE","COUNTRY_CODE":"US","MEAN_MOTION":"15.08835239"},{"REV_AT_EPOCH":"5068","CENTER_NAME":"EARTH","GP_ID":"220664777","OBJECT_ID":"2022-005F","TLE_LINE2":"2 51109  53.2159 181.0886 0002883  46.0009 314.1221 15.08846722 50681","OBJECT_NAME":"STARLINK-3358","ARG_OF_PERICENTER":"46.0009","RA_OF_ASC_NODE":"181.0886","CLASSIFICATION_TYPE":"U","ELEMENT_SET_NO":"999","MEAN_MOTION_DDOT":"0.0000000000000","SEMIMAJOR_AXIS":"6917.860","OBJECT_TYPE":"PAYLOAD","MEAN_MOTION_DOT":"0.00000869","EPHEMERIS_TYPE":"0","PERIAPSIS":"537.730","FILE":"3705029","REF_FRAME":"TEME","EPOCH":"2022-12-16T20:36:19.390464","SITE":"AFETR","NORAD_CAT_ID":"51109","MEAN_ANOMALY":"314.1221","TIME_SYSTEM":"UTC","RCS_SIZE":"LARGE","MEAN_MOTION":"15.08846722","COUNTRY_CODE":"US","INCLINATION":"53.2159","LAUNCH_DATE":"2022-01-19","MEAN_ELEMENT_THEORY":"SGP4","APOAPSIS":"541.719","BSTAR":"0.00007272100000","ECCENTRICITY":"0.00028830","TLE_LINE1":"1 51109U 22005F   22350.85855776  .00000869  00000-0  72721-4 0  9994","PERIOD":"95.437","DECAY_DATE":null},{"ARG_OF_PERICENTER":"35.0256","OBJECT_NAME":"STARLINK-3344","GP_ID":"220663544","OBJECT_ID":"2022-005G","TLE_LINE2":"2 51110  53.2158 181.2464 0002815  35.0256 325.0921 15.08841452 50912","REV_AT_EPOCH":"5091","CENTER_NAME":"EARTH","CLASSIFICATION_TYPE":"U","MEAN_MOTION_DDOT":"0.0000000000000","ELEMENT_SET_NO":"999","RA_OF_ASC_NODE":"181.2464","EPHEMERIS_TYPE":"0","SEMIMAJOR_AXIS":"6917.876","OBJECT_TYPE":"PAYLOAD","MEAN_MOTION_DOT":"0.00001640","REF_FRAME":"TEME","FILE":"3705029","PERIAPSIS":"537.794","SITE":"AFETR","MEAN_ANOMALY":"325.0921","NORAD_CAT_ID":"51110","TIME_SYSTEM":"UTC","RCS_SIZE":"LARGE","EPOCH":"2022-12-16T19:52:32.445120","COUNTRY_CODE":"US","MEAN_MOTION":"15.08841452","APOAPSIS":"541.688","MEAN_ELEMENT_THEORY":"SGP4","LAUNCH_DATE":"2022-01-19","INCLINATION":"53.2158","DECAY_DATE":null,"PERIOD":"95.437","TLE_LINE1":"1 51110U 22005G   22350.82815330  .00001640  00000-0  12116-3 0  9994","BSTAR":"0.00012116000000","ECCENTRICITY":"0.00028150"}];
